{
"type": "FeatureCollection",
"name": "stations_places",
"crs": { "type": "name", "properties": { "name": "urn:ogc:def:crs:OGC:1.3:CRS84" } },
"xy_coordinate_resolution": 1e-15,
"features": [
{ "type": "Feature", "properties": { "fid": 1557, "SCALERANK": 8, "NAME": "Berens River", "ADM1NAME": "Manitoba", "city_id": "s0000102", "city": "Berens River", "station_code": "CYBV", "lat": 52.35, "lon": -97.02 }, "geometry": { "type": "Point", "coordinates": [ -97.0333126, 52.3665568 ] } },
{ "type": "Feature", "properties": { "fid": 1558, "SCALERANK": 8, "NAME": "Pukatawagan", "ADM1NAME": "Manitoba", "city_id": "s0000161", "city": "Pukatawagan", "station_code": "CYFO", "lat": 55.74, "lon": -101.3 }, "geometry": { "type": "Point", "coordinates": [ -101.3166171, 55.7332764 ] } },
{ "type": "Feature", "properties": { "fid": 1559, "SCALERANK": 8, "NAME": "Gimli", "ADM1NAME": "Manitoba", "city_id": "s0000534", "city": "Gimli", "station_code": "CPGH", "lat": 50.63, "lon": -96.99 }, "geometry": { "type": "Point", "coordinates": [ -96.9999813, 50.6333034 ] } },
{ "type": "Feature", "properties": { "fid": 1560, "SCALERANK": 8, "NAME": "Island Lake", "ADM1NAME": "Manitoba", "city_id": "s0000565", "city": "Island Lake", "station_code": "CYIV", "lat": 53.86, "lon": -94.66 }, "geometry": { "type": "Point", "coordinates": [ -94.7665776, 53.9665884 ] } },
{ "type": "Feature", "properties": { "fid": 1561, "SCALERANK": 8, "NAME": "Melville", "ADM1NAME": "Saskatchewan", "city_id": "s0000665", "city": "Melville", "station_code": "CYQV", "lat": 50.93, "lon": -102.8 }, "geometry": { "type": "Point", "coordinates": [ -102.7999891, 50.933311 ] } },
{ "type": "Feature", "properties": { "fid": 1562, "SCALERANK": 8, "NAME": "Weyburn", "ADM1NAME": "Saskatchewan", "city_id": "s0000372", "city": "Weyburn", "station_code": "CWWF", "lat": 49.67, "lon": -103.85 }, "geometry": { "type": "Point", "coordinates": [ -103.8500025, 49.6665666 ] } },
{ "type": "Feature", "properties": { "fid": 1563, "SCALERANK": 8, "NAME": "La Ronge", "ADM1NAME": "Saskatchewan", "city_id": "s0000715", "city": "La Ronge", "station_code": "CYVC", "lat": 55.11, "lon": -105.28 }, "geometry": { "type": "Point", "coordinates": [ -105.3000173, 55.1000075 ] } },
{ "type": "Feature", "properties": { "fid": 1564, "SCALERANK": 8, "NAME": "Stony Rapids", "ADM1NAME": "Saskatchewan", "city_id": "s0000684", "city": "Stony Rapids", "station_code": "CYSF", "lat": 59.26, "lon": -105.84 }, "geometry": { "type": "Point", "coordinates": [ -105.8332664, 59.2665749 ] } },
{ "type": "Feature", "properties": { "fid": 1565, "SCALERANK": 8, "NAME": "Camrose", "ADM1NAME": "Alberta", "city_id": "s0000311", "city": "Camrose", "station_code": "CWRV", "lat": 53.02, "lon": -112.84 }, "geometry": { "type": "Point", "coordinates": [ -112.8166386, 53.016698 ] } },
{ "type": "Feature", "properties": { "fid": 1566, "SCALERANK": 8, "NAME": "Hinton", "ADM1NAME": "Alberta", "city_id": "s0000217", "city": "Hinton", "station_code": "CWJW", "lat": 53.4, "lon": -117.57 }, "geometry": { "type": "Point", "coordinates": [ -117.5833503, 53.3999821 ] } },
{ "type": "Feature", "properties": { "fid": 1567, "SCALERANK": 8, "NAME": "Vegreville", "ADM1NAME": "Alberta", "city_id": "s0000356", "city": "Vegreville", "station_code": "CWVI", "lat": 53.5, "lon": -112.05 }, "geometry": { "type": "Point", "coordinates": [ -112.0499671, 53.499976 ] } },
{ "type": "Feature", "properties": { "fid": 1568, "SCALERANK": 8, "NAME": "Stettler", "ADM1NAME": "Alberta", "city_id": "s0000829", "city": "Stettler", "station_code": "CSTET", "lat": 52.32, "lon": -112.7 }, "geometry": { "type": "Point", "coordinates": [ -112.6832876, 52.3329671 ] } },
{ "type": "Feature", "properties": { "fid": 1569, "SCALERANK": 8, "NAME": "Lac La Biche", "ADM1NAME": "Alberta", "city_id": "s0000229", "city": "Lac La Biche", "station_code": "CWLB", "lat": 54.77, "lon": -111.98 }, "geometry": { "type": "Point", "coordinates": [ -111.964701, 54.7719397 ] } },
{ "type": "Feature", "properties": { "fid": 1570, "SCALERANK": 8, "NAME": "Wetaskiwin", "ADM1NAME": "Alberta", "city_id": "s0000312", "city": "Wetaskiwin", "station_code": "CWRV", "lat": 52.97, "lon": -113.38 }, "geometry": { "type": "Point", "coordinates": [ -113.3832966, 52.9665719 ] } },
{ "type": "Feature", "properties": { "fid": 1572, "SCALERANK": 8, "NAME": "Creston", "ADM1NAME": "British Columbia", "city_id": "s0000212", "city": "Creston", "station_code": "CWJR", "lat": 49.1, "lon": -116.51 }, "geometry": { "type": "Point", "coordinates": [ -116.516697, 49.0999603 ] } },
{ "type": "Feature", "properties": { "fid": 1573, "SCALERANK": 8, "NAME": "Cranbrook", "ADM1NAME": "British Columbia", "city_id": "s0000741", "city": "Cranbrook", "station_code": "CYXC", "lat": 49.52, "lon": -115.76 }, "geometry": { "type": "Point", "coordinates": [ -115.7666653, 49.5166791 ] } },
{ "type": "Feature", "properties": { "fid": 1574, "SCALERANK": 8, "NAME": "Terrace", "ADM1NAME": "British Columbia", "city_id": "s0000757", "city": "Terrace", "station_code": "CYXT", "lat": 54.52, "lon": -128.6 }, "geometry": { "type": "Point", "coordinates": [ -128.583324800000014, 54.4999925 ] } },
{ "type": "Feature", "properties": { "fid": 1575, "SCALERANK": 8, "NAME": "Chilliwack", "ADM1NAME": "British Columbia", "city_id": "s0000398", "city": "Chilliwack", "station_code": "CWZA", "lat": 49.17, "lon": -121.94 }, "geometry": { "type": "Point", "coordinates": [ -121.949983, 49.1666488 ] } },
{ "type": "Feature", "properties": { "fid": 1577, "SCALERANK": 8, "NAME": "Lutselke", "ADM1NAME": "Northwest Territories", "city_id": "s0000443", "city": "Lutselke", "station_code": "CYLK", "lat": 62.41, "lon": -110.73 }, "geometry": { "type": "Point", "coordinates": [ -110.7333291, 62.4000529 ] } },
{ "type": "Feature", "properties": { "fid": 1578, "SCALERANK": 8, "NAME": "Hay River", "ADM1NAME": "Northwest Territories", "city_id": "s0000561", "city": "Hay River", "station_code": "CYHY", "lat": 60.81, "lon": -115.78 }, "geometry": { "type": "Point", "coordinates": [ -115.788340155512145, 60.814275868154972 ] } },
{ "type": "Feature", "properties": { "fid": 1580, "SCALERANK": 8, "NAME": "Paulatuk", "ADM1NAME": "Northwest Territories", "city_id": "s0000759", "city": "Paulatuk", "station_code": "CYPC", "lat": 69.35, "lon": -124.07 }, "geometry": { "type": "Point", "coordinates": [ -123.9833214, 69.3833218 ] } },
{ "type": "Feature", "properties": { "fid": 1582, "SCALERANK": 8, "NAME": "Owen Sound", "ADM1NAME": "Ontario", "city_id": "s0000728", "city": "Owen Sound", "station_code": "CYVV", "lat": 44.57, "lon": -80.93 }, "geometry": { "type": "Point", "coordinates": [ -80.944660768912129, 44.565234191693172 ] } },
{ "type": "Feature", "properties": { "fid": 1583, "SCALERANK": 8, "NAME": "Orillia", "ADM1NAME": "Ontario", "city_id": "s0000414", "city": "Orillia", "station_code": "CXBI", "lat": 44.61, "lon": -79.42 }, "geometry": { "type": "Point", "coordinates": [ -79.4166618, 44.5999766 ] } },
{ "type": "Feature", "properties": { "fid": 1584, "SCALERANK": 8, "NAME": "Kapuskasing", "ADM1NAME": "Ontario", "city_id": "s0000782", "city": "Kapuskasing", "station_code": "CYYU", "lat": 49.45, "lon": -82.15 }, "geometry": { "type": "Point", "coordinates": [ -82.4333252, 49.4166852 ] } },
{ "type": "Feature", "properties": { "fid": 1587, "SCALERANK": 8, "NAME": "Belleville", "ADM1NAME": "Ontario", "city_id": "s0000703", "city": "Belleville", "station_code": "CYTR", "lat": 44.17, "lon": -77.38 }, "geometry": { "type": "Point", "coordinates": [ -77.3833492, 44.1666697 ] } },
{ "type": "Feature", "properties": { "fid": 1588, "SCALERANK": 8, "NAME": "Sarnia", "ADM1NAME": "Ontario", "city_id": "s0000796", "city": "Sarnia", "station_code": "CYZR", "lat": 42.99, "lon": -82.38 }, "geometry": { "type": "Point", "coordinates": [ -82.3999681, 42.9666396 ] } },
{ "type": "Feature", "properties": { "fid": 1589, "SCALERANK": 8, "NAME": "Peterborough", "ADM1NAME": "Ontario", "city_id": "s0000629", "city": "Peterborough", "station_code": "CYPQ", "lat": 44.3, "lon": -78.33 }, "geometry": { "type": "Point", "coordinates": [ -78.3332654, 44.2999691 ] } },
{ "type": "Feature", "properties": { "fid": 1590, "SCALERANK": 8, "NAME": "Oshawa", "ADM1NAME": "Ontario", "city_id": "s0000707", "city": "Oshawa", "station_code": "CYOO", "lat": 43.9, "lon": -78.86 }, "geometry": { "type": "Point", "coordinates": [ -78.8499781, 43.8799947 ] } },
{ "type": "Feature", "properties": { "fid": 1591, "SCALERANK": 8, "NAME": "London", "ADM1NAME": "Ontario", "city_id": "s0000326", "city": "London", "station_code": "CYXU", "lat": 42.98, "lon": -81.25 }, "geometry": { "type": "Point", "coordinates": [ -81.2499866, 42.9699986 ] } },
{ "type": "Feature", "properties": { "fid": 1594, "SCALERANK": 8, "NAME": "Brockville", "ADM1NAME": "Ontario", "city_id": "s0000168", "city": "Brockville", "station_code": "CTBO", "lat": 44.6, "lon": -75.69 }, "geometry": { "type": "Point", "coordinates": [ -75.6953127, 44.5892796 ] } },
{ "type": "Feature", "properties": { "fid": 1596, "SCALERANK": 8, "NAME": "Port-Menier", "ADM1NAME": "Québec", "city_id": "s0000097", "city": "Port-Menier", "station_code": "CWBY", "lat": 49.82, "lon": -64.35 }, "geometry": { "type": "Point", "coordinates": [ -64.347995, 49.8225777 ] } },
{ "type": "Feature", "properties": { "fid": 1597, "SCALERANK": 8, "NAME": "Rivière-du-Loup", "ADM1NAME": "Québec", "city_id": "s0000253", "city": "Rivière-du-Loup", "station_code": "CWNH", "lat": 47.84, "lon": -69.54 }, "geometry": { "type": "Point", "coordinates": [ -69.5333116, 47.8332935 ] } },
{ "type": "Feature", "properties": { "fid": 1598, "SCALERANK": 8, "NAME": "Drummondville", "ADM1NAME": "Québec", "city_id": "s0000261", "city": "Drummondville", "station_code": "CMSI", "lat": 45.88, "lon": -72.48 }, "geometry": { "type": "Point", "coordinates": [ -72.4833641, 45.883335 ] } },
{ "type": "Feature", "properties": { "fid": 1599, "SCALERANK": 8, "NAME": "Sherbrooke", "ADM1NAME": "Québec", "city_id": "s0000681", "city": "Sherbrooke", "station_code": "CYSC", "lat": 45.4, "lon": -71.89 }, "geometry": { "type": "Point", "coordinates": [ -71.8999889, 45.4000053 ] } },
{ "type": "Feature", "properties": { "fid": 1601, "SCALERANK": 8, "NAME": "Baie-Comeau", "ADM1NAME": "Québec", "city_id": "s0000483", "city": "Baie-Comeau", "station_code": "CYBC", "lat": 49.22, "lon": -68.15 }, "geometry": { "type": "Point", "coordinates": [ -68.157995, 49.222666 ] } },
{ "type": "Feature", "properties": { "fid": 1602, "SCALERANK": 8, "NAME": "Natashquan", "ADM1NAME": "Québec", "city_id": "s0000610", "city": "Natashquan", "station_code": "CYNA", "lat": 50.19, "lon": -61.82 }, "geometry": { "type": "Point", "coordinates": [ -61.8106564, 50.1913408 ] } },
{ "type": "Feature", "properties": { "fid": 1604, "SCALERANK": 8, "NAME": "Schefferville", "ADM1NAME": "Québec", "city_id": "s0000577", "city": "Schefferville", "station_code": "CYKL", "lat": 54.8, "lon": -66.82 }, "geometry": { "type": "Point", "coordinates": [ -66.8166557, 54.8 ] } },
{ "type": "Feature", "properties": { "fid": 1605, "SCALERANK": 8, "NAME": "Salluit", "ADM1NAME": "Québec", "city_id": "s0000793", "city": "Salluit", "station_code": "CYZG", "lat": 62.21, "lon": -75.65 }, "geometry": { "type": "Point", "coordinates": [ -75.659501, 62.1825985 ] } },
{ "type": "Feature", "properties": { "fid": 1606, "SCALERANK": 8, "NAME": "Amos", "ADM1NAME": "Québec", "city_id": "s0000718", "city": "Amos", "station_code": "CYVO", "lat": 48.47, "lon": -78.14 }, "geometry": { "type": "Point", "coordinates": [ -78.1166637, 48.5666337 ] } },
{ "type": "Feature", "properties": { "fid": 1607, "SCALERANK": 8, "NAME": "Joliette", "ADM1NAME": "Québec", "city_id": "s0000721", "city": "Joliette", "station_code": "CWEW", "lat": 46.02, "lon": -73.44 }, "geometry": { "type": "Point", "coordinates": [ -73.4333061, 46.0333258 ] } },
{ "type": "Feature", "properties": { "fid": 1610, "SCALERANK": 8, "NAME": "Rouyn-Noranda", "ADM1NAME": "Québec", "city_id": "s0000353", "city": "Rouyn-Noranda", "station_code": "CYUY", "lat": 48.24, "lon": -79.02 }, "geometry": { "type": "Point", "coordinates": [ -79.0332485, 48.2500122 ] } },
{ "type": "Feature", "properties": { "fid": 1611, "SCALERANK": 8, "NAME": "La Sarre", "ADM1NAME": "Québec", "city_id": "s0000354", "city": "La Sarre", "station_code": "CWUY", "lat": 48.81, "lon": -79.2 }, "geometry": { "type": "Point", "coordinates": [ -79.2000342, 48.8000045 ] } },
{ "type": "Feature", "properties": { "fid": 1612, "SCALERANK": 8, "NAME": "New Glasgow", "ADM1NAME": "Nova Scotia", "city_id": "s0000089", "city": "New Glasgow", "station_code": "CWBK", "lat": 45.59, "lon": -62.64 }, "geometry": { "type": "Point", "coordinates": [ -62.6333193, 45.5832758 ] } },
{ "type": "Feature", "properties": { "fid": 1613, "SCALERANK": 8, "NAME": "Liverpool", "ADM1NAME": "Nova Scotia", "city_id": "s0000371", "city": "Liverpool", "station_code": "CWWE", "lat": 44.04, "lon": -64.72 }, "geometry": { "type": "Point", "coordinates": [ -64.7200137, 44.0399591 ] } },
{ "type": "Feature", "properties": { "fid": 1614, "SCALERANK": 8, "NAME": "Amherst", "ADM1NAME": "Nova Scotia", "city_id": "s0000450", "city": "Amherst", "station_code": "CXNP", "lat": 45.83, "lon": -64.21 }, "geometry": { "type": "Point", "coordinates": [ -64.2165819, 45.816569 ] } },
{ "type": "Feature", "properties": { "fid": 1615, "SCALERANK": 8, "NAME": "Baddeck", "ADM1NAME": "Nova Scotia", "city_id": "s0000265", "city": "Baddeck", "station_code": "CAEI", "lat": 46.1, "lon": -60.75 }, "geometry": { "type": "Point", "coordinates": [ -60.7539767, 46.0999884 ] } },
{ "type": "Feature", "properties": { "fid": 1616, "SCALERANK": 8, "NAME": "Deer Lake", "ADM1NAME": "Newfoundland and Labrador", "city_id": "s0000507", "city": "Deer Lake", "station_code": "CYDF", "lat": 49.18, "lon": -57.42 }, "geometry": { "type": "Point", "coordinates": [ -57.4269188, 49.1744002 ] } },
{ "type": "Feature", "properties": { "fid": 1617, "SCALERANK": 8, "NAME": "La Scie", "ADM1NAME": "Newfoundland and Labrador", "city_id": "s0000079", "city": "La Scie", "station_code": "CWAG", "lat": 49.96, "lon": -55.59 }, "geometry": { "type": "Point", "coordinates": [ -55.5830003, 49.9670134 ] } },
{ "type": "Feature", "properties": { "fid": 1618, "SCALERANK": 8, "NAME": "Hopedale", "ADM1NAME": "Newfoundland and Labrador", "city_id": "s0000181", "city": "Hopedale", "station_code": "CWHO", "lat": 55.46, "lon": -60.21 }, "geometry": { "type": "Point", "coordinates": [ -60.216671, 55.4499603 ] } },
{ "type": "Feature", "properties": { "fid": 1786, "SCALERANK": 8, "NAME": "Tofino", "ADM1NAME": "British Columbia", "city_id": "s0000481", "city": "Tofino", "station_code": "CYAZ", "lat": 49.15, "lon": -125.91 }, "geometry": { "type": "Point", "coordinates": [ -125.8621245, 49.0986157 ] } },
{ "type": "Feature", "properties": { "fid": 4265, "SCALERANK": 7, "NAME": "Steinbach", "ADM1NAME": "Manitoba", "city_id": "s0000151", "city": "Steinbach", "station_code": "CPTG", "lat": 49.53, "lon": -96.68 }, "geometry": { "type": "Point", "coordinates": [ -96.6833081, 49.5170925 ] } },
{ "type": "Feature", "properties": { "fid": 4269, "SCALERANK": 7, "NAME": "Yorkton", "ADM1NAME": "Saskatchewan", "city_id": "s0000663", "city": "Yorkton", "station_code": "CYQV", "lat": 51.21, "lon": -102.45 }, "geometry": { "type": "Point", "coordinates": [ -102.4665469, 51.2170663 ] } },
{ "type": "Feature", "properties": { "fid": 4270, "SCALERANK": 7, "NAME": "Swift Current", "ADM1NAME": "Saskatchewan", "city_id": "s0000355", "city": "Swift Current", "station_code": "CYYN", "lat": 50.28, "lon": -107.79 }, "geometry": { "type": "Point", "coordinates": [ -107.766611, 50.2837382 ] } },
{ "type": "Feature", "properties": { "fid": 4271, "SCALERANK": 7, "NAME": "Biggar", "ADM1NAME": "Saskatchewan", "city_id": "s0000343", "city": "Biggar", "station_code": "CWTS", "lat": 52.06, "lon": -107.98 }, "geometry": { "type": "Point", "coordinates": [ -107.9832902, 52.0504004 ] } },
{ "type": "Feature", "properties": { "fid": 4272, "SCALERANK": 7, "NAME": "Kindersley", "ADM1NAME": "Saskatchewan", "city_id": "s0000581", "city": "Kindersley", "station_code": "CYKY", "lat": 51.47, "lon": -109.16 }, "geometry": { "type": "Point", "coordinates": [ -109.1332976, 51.4669735 ] } },
{ "type": "Feature", "properties": { "fid": 4273, "SCALERANK": 7, "NAME": "Meadow Lake", "ADM1NAME": "Saskatchewan", "city_id": "s0000589", "city": "Meadow Lake", "station_code": "CYLJ", "lat": 54.13, "lon": -108.43 }, "geometry": { "type": "Point", "coordinates": [ -108.4347356, 54.1301184 ] } },
{ "type": "Feature", "properties": { "fid": 4274, "SCALERANK": 7, "NAME": "Hudson Bay", "ADM1NAME": "Saskatchewan", "city_id": "s0000545", "city": "Hudson Bay", "station_code": "CZHB", "lat": 52.86, "lon": -102.39 }, "geometry": { "type": "Point", "coordinates": [ -102.3832961, 52.8504291 ] } },
{ "type": "Feature", "properties": { "fid": 4275, "SCALERANK": 7, "NAME": "Lethbridge", "ADM1NAME": "Alberta", "city_id": "s0000652", "city": "Lethbridge", "station_code": "CYQL", "lat": 49.69, "lon": -112.84 }, "geometry": { "type": "Point", "coordinates": [ -112.8332784, 49.7004922 ] } },
{ "type": "Feature", "properties": { "fid": 4276, "SCALERANK": 7, "NAME": "Brooks", "ADM1NAME": "Alberta", "city_id": "s0000093", "city": "Brooks", "station_code": "CWBO", "lat": 50.57, "lon": -111.89 }, "geometry": { "type": "Point", "coordinates": [ -111.9000021, 50.5670543 ] } },
{ "type": "Feature", "properties": { "fid": 4278, "SCALERANK": 7, "NAME": "Athabasca", "ADM1NAME": "Alberta", "city_id": "s0000001", "city": "Athabasca", "station_code": "CATHA", "lat": 54.72, "lon": -113.28 }, "geometry": { "type": "Point", "coordinates": [ -113.2665853, 54.7170335 ] } },
{ "type": "Feature", "properties": { "fid": 4279, "SCALERANK": 7, "NAME": "Fort Chipewyan", "ADM1NAME": "Alberta", "city_id": "s0000636", "city": "Fort Chipewyan", "station_code": "CYPY", "lat": 58.71, "lon": -111.16 }, "geometry": { "type": "Point", "coordinates": [ -111.1499962, 58.7170994 ] } },
{ "type": "Feature", "properties": { "fid": 4280, "SCALERANK": 7, "NAME": "Bella Bella", "ADM1NAME": "British Columbia", "city_id": "s0000834", "city": "Bella Bella", "station_code": "CBBC", "lat": 52.16, "lon": -128.14 }, "geometry": { "type": "Point", "coordinates": [ -128.1172809, 52.1484048 ] } },
{ "type": "Feature", "properties": { "fid": 4281, "SCALERANK": 7, "NAME": "Sandspit", "ADM1NAME": "British Columbia", "city_id": "s0000795", "city": "Sandspit", "station_code": "CYZP", "lat": 53.25, "lon": -131.81 }, "geometry": { "type": "Point", "coordinates": [ -131.8332815, 53.2404053 ] } },
{ "type": "Feature", "properties": { "fid": 4282, "SCALERANK": 7, "NAME": "Campbell River", "ADM1NAME": "British Columbia", "city_id": "s0000488", "city": "Campbell River", "station_code": "CYBL", "lat": 50.02, "lon": -125.24 }, "geometry": { "type": "Point", "coordinates": [ -125.2499882, 50.0170878 ] } },
{ "type": "Feature", "properties": { "fid": 4283, "SCALERANK": 7, "NAME": "Port Hardy", "ADM1NAME": "British Columbia", "city_id": "s0000799", "city": "Port Hardy", "station_code": "CYZT", "lat": 50.72, "lon": -127.51 }, "geometry": { "type": "Point", "coordinates": [ -127.4999801, 50.7170709 ] } },
{ "type": "Feature", "properties": { "fid": 4284, "SCALERANK": 7, "NAME": "Nanaimo", "ADM1NAME": "British Columbia", "city_id": "s0000496", "city": "Nanaimo", "station_code": "CYCD", "lat": 49.17, "lon": -123.94 }, "geometry": { "type": "Point", "coordinates": [ -123.9342911, 49.1460202 ] } },
{ "type": "Feature", "properties": { "fid": 4285, "SCALERANK": 7, "NAME": "Quesnel", "ADM1NAME": "British Columbia", "city_id": "s0000671", "city": "Quesnel", "station_code": "CYQZ", "lat": 52.98, "lon": -122.5 }, "geometry": { "type": "Point", "coordinates": [ -122.4832837, 52.9836768 ] } },
{ "type": "Feature", "properties": { "fid": 4286, "SCALERANK": 7, "NAME": "Abbotsford", "ADM1NAME": "British Columbia", "city_id": "s0000758", "city": "Abbotsford", "station_code": "CYXX", "lat": 49.06, "lon": -122.32 }, "geometry": { "type": "Point", "coordinates": [ -122.2999874, 49.0503768 ] } },
{ "type": "Feature", "properties": { "fid": 4287, "SCALERANK": 7, "NAME": "Dawson Creek", "ADM1NAME": "British Columbia", "city_id": "s0000509", "city": "Dawson Creek", "station_code": "CYDQ", "lat": 55.76, "lon": -120.23 }, "geometry": { "type": "Point", "coordinates": [ -120.233266, 55.7669694 ] } },
{ "type": "Feature", "properties": { "fid": 4288, "SCALERANK": 7, "NAME": "Penticton", "ADM1NAME": "British Columbia", "city_id": "s0000772", "city": "Penticton", "station_code": "CYYF", "lat": 49.48, "lon": -119.58 }, "geometry": { "type": "Point", "coordinates": [ -119.5832799, 49.5003752 ] } },
{ "type": "Feature", "properties": { "fid": 4289, "SCALERANK": 7, "NAME": "Nelson", "ADM1NAME": "British Columbia", "city_id": "s0000258", "city": "Nelson", "station_code": "CWNM", "lat": 49.5, "lon": -117.28 }, "geometry": { "type": "Point", "coordinates": [ -117.2832911, 49.4836579 ] } },
{ "type": "Feature", "properties": { "fid": 4290, "SCALERANK": 7, "NAME": "Lillooet", "ADM1NAME": "British Columbia", "city_id": "s0000222", "city": "Lillooet", "station_code": "CWKF", "lat": 50.69, "lon": -121.93 }, "geometry": { "type": "Point", "coordinates": [ -121.9332656, 50.6837138 ] } },
{ "type": "Feature", "properties": { "fid": 4291, "SCALERANK": 7, "NAME": "Powell River", "ADM1NAME": "British Columbia", "city_id": "s0000634", "city": "Powell River", "station_code": "CYPW", "lat": 49.87, "lon": -124.55 }, "geometry": { "type": "Point", "coordinates": [ -124.5499793, 49.883711 ] } },
{ "type": "Feature", "properties": { "fid": 4292, "SCALERANK": 7, "NAME": "Revelstoke", "ADM1NAME": "British Columbia", "city_id": "s0000679", "city": "Revelstoke", "station_code": "CYRV", "lat": 51.0, "lon": -118.2 }, "geometry": { "type": "Point", "coordinates": [ -118.1833395, 51.0004645 ] } },
{ "type": "Feature", "properties": { "fid": 4293, "SCALERANK": 7, "NAME": "Burns Lake", "ADM1NAME": "British Columbia", "city_id": "s0000293", "city": "Burns Lake", "station_code": "CWPZ", "lat": 54.23, "lon": -125.76 }, "geometry": { "type": "Point", "coordinates": [ -125.7665975, 54.2170123 ] } },
{ "type": "Feature", "properties": { "fid": 4294, "SCALERANK": 7, "NAME": "Dease Lake", "ADM1NAME": "British Columbia", "city_id": "s0000227", "city": "Dease Lake", "station_code": "CYDL", "lat": 58.44, "lon": -130.0 }, "geometry": { "type": "Point", "coordinates": [ -130.033288, 58.4503457 ] } },
{ "type": "Feature", "properties": { "fid": 4295, "SCALERANK": 7, "NAME": "Coral Harbour", "ADM1NAME": "Nunavut", "city_id": "s0000798", "city": "Coral Harbour", "station_code": "CYZS", "lat": 64.14, "lon": -83.17 }, "geometry": { "type": "Point", "coordinates": [ -83.1765874, 64.1537702 ] } },
{ "type": "Feature", "properties": { "fid": 4296, "SCALERANK": 7, "NAME": "Baker Lake", "ADM1NAME": "Nunavut", "city_id": "s0000487", "city": "Baker Lake", "station_code": "CYBK", "lat": 64.32, "lon": -96.02 }, "geometry": { "type": "Point", "coordinates": [ -96.0166563, 64.3169902 ] } },
{ "type": "Feature", "properties": { "fid": 4297, "SCALERANK": 7, "NAME": "Norman Wells", "ADM1NAME": "Northwest Territories", "city_id": "s0000720", "city": "Norman Wells", "station_code": "CYVQ", "lat": 65.28, "lon": -126.83 }, "geometry": { "type": "Point", "coordinates": [ -126.8499681, 65.283727 ] } },
{ "type": "Feature", "properties": { "fid": 4298, "SCALERANK": 7, "NAME": "Fort McPherson", "ADM1NAME": "Northwest Territories", "city_id": "s0000816", "city": "Fort McPherson", "station_code": "CZFM", "lat": 67.44, "lon": -134.86 }, "geometry": { "type": "Point", "coordinates": [ -134.8949809, 67.4915251 ] } },
{ "type": "Feature", "properties": { "fid": 4299, "SCALERANK": 7, "NAME": "Burwash Landing", "ADM1NAME": "Yukon", "city_id": "s0000506", "city": "Burwash Landing", "station_code": "CYDB", "lat": 61.35, "lon": -138.99 }, "geometry": { "type": "Point", "coordinates": [ -139.000001700000013, 61.3503754 ] } },
{ "type": "Feature", "properties": { "fid": 4302, "SCALERANK": 7, "NAME": "Orangeville", "ADM1NAME": "Ontario", "city_id": "s0000815", "city": "Orangeville", "station_code": "CZEL", "lat": 43.92, "lon": -80.11 }, "geometry": { "type": "Point", "coordinates": [ -80.0833395, 43.9170726 ] } },
{ "type": "Feature", "properties": { "fid": 4304, "SCALERANK": 7, "NAME": "Chapleau", "ADM1NAME": "Ontario", "city_id": "s0000588", "city": "Chapleau", "station_code": "CYLD", "lat": 47.84, "lon": -83.4 }, "geometry": { "type": "Point", "coordinates": [ -83.4000104, 47.8337069 ] } },
{ "type": "Feature", "properties": { "fid": 4305, "SCALERANK": 7, "NAME": "Wawa", "ADM1NAME": "Ontario", "city_id": "s0000761", "city": "Wawa", "station_code": "CYXZ", "lat": 47.99, "lon": -84.77 }, "geometry": { "type": "Point", "coordinates": [ -84.7833368, 48.0004151 ] } },
{ "type": "Feature", "properties": { "fid": 4306, "SCALERANK": 7, "NAME": "Hearst", "ADM1NAME": "Ontario", "city_id": "s0000266", "city": "Hearst", "station_code": "CWNZ", "lat": 49.64, "lon": -83.4 }, "geometry": { "type": "Point", "coordinates": [ -83.6665833, 49.7004922 ] } },
{ "type": "Feature", "properties": { "fid": 4307, "SCALERANK": 7, "NAME": "Marathon", "ADM1NAME": "Ontario", "city_id": "s0000022", "city": "Marathon", "station_code": "CYSP", "lat": 48.76, "lon": -86.58 }, "geometry": { "type": "Point", "coordinates": [ -86.366651, 48.7503951 ] } },
{ "type": "Feature", "properties": { "fid": 4308, "SCALERANK": 7, "NAME": "Sioux Lookout", "ADM1NAME": "Ontario", "city_id": "s0000748", "city": "Sioux Lookout", "station_code": "CYXL", "lat": 50.1, "lon": -91.92 }, "geometry": { "type": "Point", "coordinates": [ -91.9166482, 50.2629643 ] } },
{ "type": "Feature", "properties": { "fid": 4309, "SCALERANK": 7, "NAME": "Red Lake", "ADM1NAME": "Ontario", "city_id": "s0000676", "city": "Red Lake", "station_code": "CYRL", "lat": 51.02, "lon": -93.83 }, "geometry": { "type": "Point", "coordinates": [ -93.8333012, 51.0336924 ] } },
{ "type": "Feature", "properties": { "fid": 4310, "SCALERANK": 7, "NAME": "Deer Lake", "ADM1NAME": "Ontario", "city_id": "s0000507", "city": "Deer Lake", "station_code": "CYDF", "lat": 49.18, "lon": -57.42 }, "geometry": { "type": "Point", "coordinates": [ -94.0665945, 52.6170325 ] } },
{ "type": "Feature", "properties": { "fid": 4312, "SCALERANK": 7, "NAME": "Cornwall", "ADM1NAME": "Ontario", "city_id": "s0000071", "city": "Cornwall", "station_code": "CWBZ", "lat": 45.03, "lon": -74.73 }, "geometry": { "type": "Point", "coordinates": [ -74.7333301, 45.0170571 ] } },
{ "type": "Feature", "properties": { "fid": 4313, "SCALERANK": 7, "NAME": "Kingston", "ADM1NAME": "Ontario", "city_id": "s0000531", "city": "Kingston", "station_code": "CYGK", "lat": 44.24, "lon": -76.5 }, "geometry": { "type": "Point", "coordinates": [ -76.4833008, 44.2337199 ] } },
{ "type": "Feature", "properties": { "fid": 4314, "SCALERANK": 7, "NAME": "Barrie", "ADM1NAME": "Ontario", "city_id": "s0000415", "city": "Barrie", "station_code": "CXBI", "lat": 44.45, "lon": -79.73 }, "geometry": { "type": "Point", "coordinates": [ -79.7000037, 44.3837624 ] } },
{ "type": "Feature", "properties": { "fid": 4315, "SCALERANK": 7, "NAME": "Parry Sound", "ADM1NAME": "Ontario", "city_id": "s0000451", "city": "Parry Sound", "station_code": "CXPC", "lat": 45.35, "lon": -80.03 }, "geometry": { "type": "Point", "coordinates": [ -80.0330066, 45.3337044 ] } },
{ "type": "Feature", "properties": { "fid": 4316, "SCALERANK": 7, "NAME": "Wiarton", "ADM1NAME": "Ontario", "city_id": "s0000724", "city": "Wiarton", "station_code": "CYVV", "lat": 44.74, "lon": -81.14 }, "geometry": { "type": "Point", "coordinates": [ -81.1333012, 44.7336894 ] } },
{ "type": "Feature", "properties": { "fid": 4318, "SCALERANK": 7, "NAME": "Cochrane", "ADM1NAME": "Ontario", "city_id": "s0000493", "city": "Cochrane", "station_code": "CYBW", "lat": 51.19, "lon": -114.48 }, "geometry": { "type": "Point", "coordinates": [ -81.0165642, 49.0670166 ] } },
{ "type": "Feature", "properties": { "fid": 4319, "SCALERANK": 7, "NAME": "Nipigon", "ADM1NAME": "Ontario", "city_id": "s0000419", "city": "Nipigon", "station_code": "CXCA", "lat": 49.01, "lon": -88.27 }, "geometry": { "type": "Point", "coordinates": [ -88.2499728, 49.0170455 ] } },
{ "type": "Feature", "properties": { "fid": 4320, "SCALERANK": 7, "NAME": "Atikokan", "ADM1NAME": "Ontario", "city_id": "s0000103", "city": "Atikokan", "station_code": "CWCH", "lat": 48.76, "lon": -91.62 }, "geometry": { "type": "Point", "coordinates": [ -91.616589, 48.7503951 ] } },
{ "type": "Feature", "properties": { "fid": 4321, "SCALERANK": 7, "NAME": "Rimouski", "ADM1NAME": "Québec", "city_id": "s0000393", "city": "Rimouski", "station_code": "CWYQ", "lat": 48.45, "lon": -68.53 }, "geometry": { "type": "Point", "coordinates": [ -68.5166812, 48.4337478 ] } },
{ "type": "Feature", "properties": { "fid": 4322, "SCALERANK": 7, "NAME": "Saint-Georges", "ADM1NAME": "Québec", "city_id": "s0000187", "city": "Saint-Georges", "station_code": "CWHV", "lat": 46.13, "lon": -70.36 }, "geometry": { "type": "Point", "coordinates": [ -70.6666533, 46.117145 ] } },
{ "type": "Feature", "properties": { "fid": 4323, "SCALERANK": 7, "NAME": "Victoriaville", "ADM1NAME": "Québec", "city_id": "s0000054", "city": "Victoriaville", "station_code": "CMLU", "lat": 46.06, "lon": -71.96 }, "geometry": { "type": "Point", "coordinates": [ -71.9666773, 46.0504049 ] } },
{ "type": "Feature", "properties": { "fid": 4324, "SCALERANK": 7, "NAME": "Chevery", "ADM1NAME": "Québec", "city_id": "s0000121", "city": "Chevery", "station_code": "CWDM", "lat": 50.47, "lon": -59.61 }, "geometry": { "type": "Point", "coordinates": [ -59.609783, 50.4813231 ] } },
{ "type": "Feature", "properties": { "fid": 4326, "SCALERANK": 7, "NAME": "Kangirsuk", "ADM1NAME": "Québec", "city_id": "s0000480", "city": "Kangirsuk", "station_code": "CYAS", "lat": 60.02, "lon": -70.03 }, "geometry": { "type": "Point", "coordinates": [ -69.9990971, 60.0248232 ] } },
{ "type": "Feature", "properties": { "fid": 4327, "SCALERANK": 7, "NAME": "Shawinigan", "ADM1NAME": "Québec", "city_id": "s0000709", "city": "Shawinigan", "station_code": "CXSH", "lat": 46.54, "lon": -72.75 }, "geometry": { "type": "Point", "coordinates": [ -72.733323, 46.5503744 ] } },
{ "type": "Feature", "properties": { "fid": 4328, "SCALERANK": 7, "NAME": "Matagami", "ADM1NAME": "Québec", "city_id": "s0000617", "city": "Matagami", "station_code": "CYNM", "lat": 49.76, "lon": -77.62 }, "geometry": { "type": "Point", "coordinates": [ -77.6332823, 49.7503858 ] } },
{ "type": "Feature", "properties": { "fid": 4329, "SCALERANK": 7, "NAME": "Mont-Laurier", "ADM1NAME": "Québec", "city_id": "s0000246", "city": "Mont-Laurier", "station_code": "CWMJ", "lat": 46.55, "lon": -75.5 }, "geometry": { "type": "Point", "coordinates": [ -75.5000275, 46.5503744 ] } },
{ "type": "Feature", "properties": { "fid": 4330, "SCALERANK": 7, "NAME": "Pembroke", "ADM1NAME": "Québec", "city_id": "s0000730", "city": "Pembroke", "station_code": "CYWA", "lat": 45.82, "lon": -77.11 }, "geometry": { "type": "Point", "coordinates": [ -77.1166472, 45.8502621 ] } },
{ "type": "Feature", "properties": { "fid": 4332, "SCALERANK": 7, "NAME": "Saint John", "ADM1NAME": "New Brunswick", "city_id": "s0000687", "city": "Saint John", "station_code": "CYSJ", "lat": 45.28, "lon": -66.08 }, "geometry": { "type": "Point", "coordinates": [ -66.0766751, 45.2670418 ] } },
{ "type": "Feature", "properties": { "fid": 4333, "SCALERANK": 7, "NAME": "Edmundston", "ADM1NAME": "New Brunswick", "city_id": "s0000043", "city": "Edmundston", "station_code": "CERM", "lat": 47.36, "lon": -68.34 }, "geometry": { "type": "Point", "coordinates": [ -68.3332815, 47.3794194 ] } },
{ "type": "Feature", "properties": { "fid": 4334, "SCALERANK": 7, "NAME": "Shelburne", "ADM1NAME": "Nova Scotia", "city_id": "s0000109", "city": "Shelburne", "station_code": "CESB", "lat": 43.76, "lon": -65.32 }, "geometry": { "type": "Point", "coordinates": [ -65.3193569, 43.7656089 ] } },
{ "type": "Feature", "properties": { "fid": 4335, "SCALERANK": 7, "NAME": "Antigonish", "ADM1NAME": "Nova Scotia", "city_id": "s0000462", "city": "Antigonish", "station_code": "CXTD", "lat": 45.62, "lon": -61.99 }, "geometry": { "type": "Point", "coordinates": [ -61.9981901, 45.6269165 ] } },
{ "type": "Feature", "properties": { "fid": 4336, "SCALERANK": 7, "NAME": "Windsor", "ADM1NAME": "Nova Scotia", "city_id": "s0000438", "city": "Windsor", "station_code": "CXKT", "lat": 44.99, "lon": -64.14 }, "geometry": { "type": "Point", "coordinates": [ -64.1291195, 44.9805994 ] } },
{ "type": "Feature", "properties": { "fid": 4337, "SCALERANK": 7, "NAME": "Digby", "ADM1NAME": "Nova Scotia", "city_id": "s0000364", "city": "Digby", "station_code": "CWVU", "lat": 44.62, "lon": -65.76 }, "geometry": { "type": "Point", "coordinates": [ -65.7604928, 44.6225851 ] } },
{ "type": "Feature", "properties": { "fid": 4338, "SCALERANK": 7, "NAME": "Stephenville", "ADM1NAME": "Newfoundland and Labrador", "city_id": "s0000567", "city": "Stephenville", "station_code": "CAJT", "lat": 48.55, "lon": -58.58 }, "geometry": { "type": "Point", "coordinates": [ -58.566565, 48.5504073 ] } },
{ "type": "Feature", "properties": { "fid": 4340, "SCALERANK": 7, "NAME": "St. Anthony", "ADM1NAME": "Newfoundland and Labrador", "city_id": "s0000128", "city": "St. Anthony", "station_code": "CYAY", "lat": 51.37, "lon": -55.59 }, "geometry": { "type": "Point", "coordinates": [ -55.5999502, 51.3837486 ] } },
{ "type": "Feature", "properties": { "fid": 4341, "SCALERANK": 7, "NAME": "Channel-Port aux Basques", "ADM1NAME": "Newfoundland and Labrador", "city_id": "s0000400", "city": "Channel-Port aux Basques", "station_code": "CAPB", "lat": 47.6, "lon": -58.88 }, "geometry": { "type": "Point", "coordinates": [ -59.1500436, 47.5670048 ] } },
{ "type": "Feature", "properties": { "fid": 4342, "SCALERANK": 7, "NAME": "Buchans", "ADM1NAME": "Newfoundland and Labrador", "city_id": "s0000117", "city": "Buchans", "station_code": "CAMR", "lat": 48.82, "lon": -56.86 }, "geometry": { "type": "Point", "coordinates": [ -56.8665912, 48.8170319 ] } },
{ "type": "Feature", "properties": { "fid": 4344, "SCALERANK": 7, "NAME": "Churchill Falls", "ADM1NAME": "Newfoundland and Labrador", "city_id": "s0000832", "city": "Churchill Falls", "station_code": "CZUM", "lat": 53.53, "lon": -64.01 }, "geometry": { "type": "Point", "coordinates": [ -63.980679, 53.5264085 ] } },
{ "type": "Feature", "properties": { "fid": 5509, "SCALERANK": 6, "NAME": "Brochet", "ADM1NAME": "Manitoba", "city_id": "s0000778", "city": "Brochet", "station_code": "CYYL", "lat": 57.89, "lon": -101.67 }, "geometry": { "type": "Point", "coordinates": [ -101.6665957, 57.8832227 ] } },
{ "type": "Feature", "properties": { "fid": 5510, "SCALERANK": 6, "NAME": "Lynn Lake", "ADM1NAME": "Manitoba", "city_id": "s0000777", "city": "Lynn Lake", "station_code": "CYYL", "lat": 56.85, "lon": -101.05 }, "geometry": { "type": "Point", "coordinates": [ -101.0499667, 56.8500299 ] } },
{ "type": "Feature", "properties": { "fid": 5511, "SCALERANK": 6, "NAME": "Gillam", "ADM1NAME": "Manitoba", "city_id": "s0000543", "city": "Gillam", "station_code": "CYGX", "lat": 56.35, "lon": -94.73 }, "geometry": { "type": "Point", "coordinates": [ -94.6999667, 56.3499829 ] } },
{ "type": "Feature", "properties": { "fid": 5512, "SCALERANK": 6, "NAME": "North Battleford", "ADM1NAME": "Saskatchewan", "city_id": "s0000666", "city": "North Battleford", "station_code": "CYQW", "lat": 52.78, "lon": -108.29 }, "geometry": { "type": "Point", "coordinates": [ -108.2833494, 52.7666358 ] } },
{ "type": "Feature", "properties": { "fid": 5513, "SCALERANK": 6, "NAME": "Prince Albert", "ADM1NAME": "Saskatchewan", "city_id": "s0000624", "city": "Prince Albert", "station_code": "CYPA", "lat": 53.2, "lon": -105.76 }, "geometry": { "type": "Point", "coordinates": [ -105.7499899, 53.2000202 ] } },
{ "type": "Feature", "properties": { "fid": 5514, "SCALERANK": 6, "NAME": "Courtenay", "ADM1NAME": "British Columbia", "city_id": "s0000657", "city": "Courtenay", "station_code": "CYQQ", "lat": 49.69, "lon": -125.0 }, "geometry": { "type": "Point", "coordinates": [ -124.9999777, 49.6833356 ] } },
{ "type": "Feature", "properties": { "fid": 5515, "SCALERANK": 6, "NAME": "Kelowna", "ADM1NAME": "British Columbia", "city_id": "s0000592", "city": "Kelowna", "station_code": "CYLW", "lat": 49.88, "lon": -119.48 }, "geometry": { "type": "Point", "coordinates": [ -119.4833118, 49.899989 ] } },
{ "type": "Feature", "properties": { "fid": 5516, "SCALERANK": 6, "NAME": "Pangnirtung", "ADM1NAME": "Nunavut", "city_id": "s0000750", "city": "Pangnirtung", "station_code": "CYXP", "lat": 66.14, "lon": -65.71 }, "geometry": { "type": "Point", "coordinates": [ -65.7500283, 66.1333134 ] } },
{ "type": "Feature", "properties": { "fid": 5520, "SCALERANK": 6, "NAME": "Dryden", "ADM1NAME": "Ontario", "city_id": "s0000546", "city": "Dryden", "station_code": "CYHD", "lat": 49.78, "lon": -92.83 }, "geometry": { "type": "Point", "coordinates": [ -92.8333364, 49.7833295 ] } },
{ "type": "Feature", "properties": { "fid": 5521, "SCALERANK": 6, "NAME": "Attawapiskat", "ADM1NAME": "Ontario", "city_id": "s0000024", "city": "Attawapiskat", "station_code": "CYAT", "lat": 52.92, "lon": -82.43 }, "geometry": { "type": "Point", "coordinates": [ -82.4333252, 52.9166266 ] } },
{ "type": "Feature", "properties": { "fid": 5522, "SCALERANK": 6, "NAME": "Hamilton", "ADM1NAME": "Ontario", "city_id": "s0000549", "city": "Hamilton", "station_code": "CYHM", "lat": 43.26, "lon": -79.87 }, "geometry": { "type": "Point", "coordinates": [ -79.8299958, 43.2499815 ] } },
{ "type": "Feature", "properties": { "fid": 5523, "SCALERANK": 6, "NAME": "Windsor", "ADM1NAME": "Ontario", "city_id": "s0000438", "city": "Windsor", "station_code": "CXKT", "lat": 44.99, "lon": -64.14 }, "geometry": { "type": "Point", "coordinates": [ -83.0368525, 42.315457 ] } },
{ "type": "Feature", "properties": { "fid": 5524, "SCALERANK": 6, "NAME": "Trois-Rivières", "ADM1NAME": "Québec", "city_id": "s0000346", "city": "Trois-Rivières", "station_code": "CYRQ", "lat": 46.34, "lon": -72.54 }, "geometry": { "type": "Point", "coordinates": [ -72.5499492, 46.3499732 ] } },
{ "type": "Feature", "properties": { "fid": 5525, "SCALERANK": 6, "NAME": "Sept-Îles", "ADM1NAME": "Québec", "city_id": "s0000800", "city": "Sept-Îles", "station_code": "CYZV", "lat": 50.21, "lon": -66.39 }, "geometry": { "type": "Point", "coordinates": [ -66.3600169, 50.3160877 ] } },
{ "type": "Feature", "properties": { "fid": 5526, "SCALERANK": 6, "NAME": "Corner Brook", "ADM1NAME": "Newfoundland and Labrador", "city_id": "s0000221", "city": "Corner Brook", "station_code": "CWKB", "lat": 48.95, "lon": -57.95 }, "geometry": { "type": "Point", "coordinates": [ -57.9333478, 48.9499953 ] } },
{ "type": "Feature", "properties": { "fid": 6042, "SCALERANK": 6, "NAME": "Norway House", "ADM1NAME": "Manitoba", "city_id": "s0000616", "city": "Norway House", "station_code": "CYNE", "lat": 53.98, "lon": -97.83 }, "geometry": { "type": "Point", "coordinates": [ -97.8332896, 53.9665884 ] } },
{ "type": "Feature", "properties": { "fid": 6043, "SCALERANK": 6, "NAME": "Flin Flon", "ADM1NAME": "Manitoba", "city_id": "s0000015", "city": "Flin Flon", "station_code": "CYFO", "lat": 54.77, "lon": -101.86 }, "geometry": { "type": "Point", "coordinates": [ -101.8833008, 54.7665912 ] } },
{ "type": "Feature", "properties": { "fid": 6044, "SCALERANK": 6, "NAME": "Dauphin", "ADM1NAME": "Manitoba", "city_id": "s0000508", "city": "Dauphin", "station_code": "CYDN", "lat": 51.15, "lon": -100.05 }, "geometry": { "type": "Point", "coordinates": [ -100.0499502, 51.1500161 ] } },
{ "type": "Feature", "properties": { "fid": 6045, "SCALERANK": 6, "NAME": "The Pas", "ADM1NAME": "Manitoba", "city_id": "s0000644", "city": "The Pas", "station_code": "CYQD", "lat": 53.82, "lon": -101.25 }, "geometry": { "type": "Point", "coordinates": [ -101.2333147, 53.8166234 ] } },
{ "type": "Feature", "properties": { "fid": 6046, "SCALERANK": 6, "NAME": "Uranium City", "ADM1NAME": "Saskatchewan", "city_id": "s0000113", "city": "Uranium City", "station_code": "CWDC", "lat": 59.57, "lon": -108.61 }, "geometry": { "type": "Point", "coordinates": [ -108.6165849, 59.5665566 ] } },
{ "type": "Feature", "properties": { "fid": 6047, "SCALERANK": 6, "NAME": "Moose Jaw", "ADM1NAME": "Saskatchewan", "city_id": "s0000822", "city": "Moose Jaw", "station_code": "CYMJ", "lat": 50.4, "lon": -105.53 }, "geometry": { "type": "Point", "coordinates": [ -105.5500021, 50.3999844 ] } },
{ "type": "Feature", "properties": { "fid": 6048, "SCALERANK": 6, "NAME": "Jasper", "ADM1NAME": "Alberta", "city_id": "s0000218", "city": "Jasper", "station_code": "CWJW", "lat": 52.87, "lon": -118.09 }, "geometry": { "type": "Point", "coordinates": [ -118.0833714, 52.8833211 ] } },
{ "type": "Feature", "properties": { "fid": 6049, "SCALERANK": 6, "NAME": "Medicine Hat", "ADM1NAME": "Alberta", "city_id": "s0000745", "city": "Medicine Hat", "station_code": "CYXH", "lat": 50.04, "lon": -110.68 }, "geometry": { "type": "Point", "coordinates": [ -110.6833322, 50.0333142 ] } },
{ "type": "Feature", "properties": { "fid": 6050, "SCALERANK": 6, "NAME": "Red Deer", "ADM1NAME": "Alberta", "city_id": "s0000645", "city": "Red Deer", "station_code": "CYQF", "lat": 52.27, "lon": -113.81 }, "geometry": { "type": "Point", "coordinates": [ -113.8000411, 52.2666404 ] } },
{ "type": "Feature", "properties": { "fid": 6051, "SCALERANK": 6, "NAME": "Banff", "ADM1NAME": "Alberta", "city_id": "s0000404", "city": "Banff", "station_code": "CWZG", "lat": 51.18, "lon": -115.57 }, "geometry": { "type": "Point", "coordinates": [ -115.5719226, 51.1779989 ] } },
{ "type": "Feature", "properties": { "fid": 6052, "SCALERANK": 6, "NAME": "Grande Prairie", "ADM1NAME": "Alberta", "city_id": "s0000661", "city": "Grande Prairie", "station_code": "CYQU", "lat": 55.17, "lon": -118.8 }, "geometry": { "type": "Point", "coordinates": [ -118.7999943, 55.1666443 ] } },
{ "type": "Feature", "properties": { "fid": 6053, "SCALERANK": 6, "NAME": "Smithers", "ADM1NAME": "British Columbia", "city_id": "s0000770", "city": "Smithers", "station_code": "CYYD", "lat": 54.78, "lon": -127.17 }, "geometry": { "type": "Point", "coordinates": [ -127.1665896, 54.7665912 ] } },
{ "type": "Feature", "properties": { "fid": 6054, "SCALERANK": 6, "NAME": "Kamloops", "ADM1NAME": "British Columbia", "city_id": "s0000568", "city": "Kamloops", "station_code": "CYKA", "lat": 50.68, "lon": -120.35 }, "geometry": { "type": "Point", "coordinates": [ -120.3332858, 50.6666606 ] } },
{ "type": "Feature", "properties": { "fid": 6055, "SCALERANK": 6, "NAME": "Williams Lake", "ADM1NAME": "British Columbia", "city_id": "s0000739", "city": "Williams Lake", "station_code": "CYWL", "lat": 52.14, "lon": -122.14 }, "geometry": { "type": "Point", "coordinates": [ -122.1499966, 52.1166496 ] } },
{ "type": "Feature", "properties": { "fid": 6056, "SCALERANK": 6, "NAME": "Prince George", "ADM1NAME": "British Columbia", "city_id": "s0000146", "city": "Prince George", "station_code": "CYXS", "lat": 53.91, "lon": -122.78 }, "geometry": { "type": "Point", "coordinates": [ -122.7666515, 53.9166689 ] } },
{ "type": "Feature", "properties": { "fid": 6057, "SCALERANK": 6, "NAME": "Fort Nelson", "ADM1NAME": "British Columbia", "city_id": "s0000771", "city": "Fort Nelson", "station_code": "CYYE", "lat": 58.81, "lon": -122.7 }, "geometry": { "type": "Point", "coordinates": [ -122.686543111009215, 58.803878101566148 ] } },
{ "type": "Feature", "properties": { "fid": 6058, "SCALERANK": 6, "NAME": "Pond Inlet", "ADM1NAME": "Nunavut", "city_id": "s0000564", "city": "Pond Inlet", "station_code": "CYIO", "lat": 72.7, "lon": -77.96 }, "geometry": { "type": "Point", "coordinates": [ -78.0000558, 72.6849807 ] } },
{ "type": "Feature", "properties": { "fid": 6060, "SCALERANK": 6, "NAME": "Kimmirut", "ADM1NAME": "Nunavut", "city_id": "s0000587", "city": "Kimmirut", "station_code": "CYLC", "lat": 62.85, "lon": -69.87 }, "geometry": { "type": "Point", "coordinates": [ -69.8833161, 62.8500255 ] } },
{ "type": "Feature", "properties": { "fid": 6061, "SCALERANK": 6, "NAME": "Gjoa Haven", "ADM1NAME": "Nunavut", "city_id": "s0000820", "city": "Gjoa Haven", "station_code": "CYHK", "lat": 68.63, "lon": -95.87 }, "geometry": { "type": "Point", "coordinates": [ -95.9166624, 68.63329 ] } },
{ "type": "Feature", "properties": { "fid": 6062, "SCALERANK": 6, "NAME": "Grise Fiord", "ADM1NAME": "Nunavut", "city_id": "s0000177", "city": "Grise Fiord", "station_code": "CWGZ", "lat": 76.42, "lon": -82.89 }, "geometry": { "type": "Point", "coordinates": [ -82.9499862, 76.4416506 ] } },
{ "type": "Feature", "properties": { "fid": 6063, "SCALERANK": 6, "NAME": "Alert", "ADM1NAME": "Nunavut", "city_id": "s0000821", "city": "Alert", "station_code": "CYLT", "lat": 82.5, "lon": -62.37 }, "geometry": { "type": "Point", "coordinates": [ -62.2499836, 82.4833232 ] } },
{ "type": "Feature", "properties": { "fid": 6064, "SCALERANK": 6, "NAME": "Ennadai", "ADM1NAME": "Nunavut", "city_id": "s0000206", "city": "Ennadai", "station_code": "CWJC", "lat": 61.13, "lon": -100.88 }, "geometry": { "type": "Point", "coordinates": [ -100.883336, 61.1332827 ] } },
{ "type": "Feature", "properties": { "fid": 6065, "SCALERANK": 6, "NAME": "Rankin Inlet", "ADM1NAME": "Nunavut", "city_id": "s0000678", "city": "Rankin Inlet", "station_code": "CYRT", "lat": 62.82, "lon": -92.08 }, "geometry": { "type": "Point", "coordinates": [ -92.0953195, 62.8166683 ] } },
{ "type": "Feature", "properties": { "fid": 6066, "SCALERANK": 6, "NAME": "Fort Resolution", "ADM1NAME": "Northwest Territories", "city_id": "s0000524", "city": "Fort Resolution", "station_code": "CYFR", "lat": 61.17, "lon": -113.67 }, "geometry": { "type": "Point", "coordinates": [ -113.682994, 61.1665882 ] } },
{ "type": "Feature", "properties": { "fid": 6067, "SCALERANK": 6, "NAME": "Fort Simpson", "ADM1NAME": "Northwest Territories", "city_id": "s0000525", "city": "Fort Simpson", "station_code": "CYFS", "lat": 61.86, "lon": -121.35 }, "geometry": { "type": "Point", "coordinates": [ -121.3332764, 61.8499831 ] } },
{ "type": "Feature", "properties": { "fid": 6068, "SCALERANK": 6, "NAME": "Inuvik", "ADM1NAME": "Northwest Territories", "city_id": "s0000519", "city": "Inuvik", "station_code": "CYEV", "lat": 68.36, "lon": -133.72 }, "geometry": { "type": "Point", "coordinates": [ -133.6999893, 68.349974 ] } },
{ "type": "Feature", "properties": { "fid": 6069, "SCALERANK": 6, "NAME": "Tuktoyaktuk", "ADM1NAME": "Northwest Territories", "city_id": "s0000830", "city": "Tuktoyaktuk", "station_code": "CYUB", "lat": 69.44, "lon": -133.03 }, "geometry": { "type": "Point", "coordinates": [ -133.0492013, 69.4547746 ] } },
{ "type": "Feature", "properties": { "fid": 6070, "SCALERANK": 6, "NAME": "Watson Lake", "ADM1NAME": "Yukon", "city_id": "s0000648", "city": "Watson Lake", "station_code": "CYQH", "lat": 60.06, "lon": -128.71 }, "geometry": { "type": "Point", "coordinates": [ -128.711692444487852, 60.062305630873361 ] } },
{ "type": "Feature", "properties": { "fid": 6074, "SCALERANK": 6, "NAME": "Lansdowne House", "ADM1NAME": "Ontario", "city_id": "s0000233", "city": "Lansdowne House", "station_code": "CYLH", "lat": 52.21, "lon": -87.89 }, "geometry": { "type": "Point", "coordinates": [ -87.8833285, 52.2166435 ] } },
{ "type": "Feature", "properties": { "fid": 6075, "SCALERANK": 6, "NAME": "Moosonee", "ADM1NAME": "Ontario", "city_id": "s0000596", "city": "Moosonee", "station_code": "CYMO", "lat": 51.28, "lon": -80.65 }, "geometry": { "type": "Point", "coordinates": [ -80.6579814, 51.2806024 ] } },
{ "type": "Feature", "properties": { "fid": 6077, "SCALERANK": 6, "NAME": "Kenora", "ADM1NAME": "Ontario", "city_id": "s0000651", "city": "Kenora", "station_code": "CYQK", "lat": 49.73, "lon": -94.32 }, "geometry": { "type": "Point", "coordinates": [ -94.4666476, 49.7666897 ] } },
{ "type": "Feature", "properties": { "fid": 6078, "SCALERANK": 6, "NAME": "Gaspé", "ADM1NAME": "Québec", "city_id": "s0000535", "city": "Gaspé", "station_code": "CYGP", "lat": 48.83, "lon": -64.57 }, "geometry": { "type": "Point", "coordinates": [ -64.4933608, 48.8373149 ] } },
{ "type": "Feature", "properties": { "fid": 6079, "SCALERANK": 6, "NAME": "Mingan", "ADM1NAME": "Québec", "city_id": "s0000094", "city": "Mingan", "station_code": "CWBT", "lat": 50.29, "lon": -64.04 }, "geometry": { "type": "Point", "coordinates": [ -64.0172653, 50.3017589 ] } },
{ "type": "Feature", "properties": { "fid": 6083, "SCALERANK": 6, "NAME": "Inukjuak", "ADM1NAME": "Québec", "city_id": "s0000627", "city": "Inukjuak", "station_code": "CYPH", "lat": 58.45, "lon": -78.11 }, "geometry": { "type": "Point", "coordinates": [ -78.1359906, 58.4700086 ] } },
{ "type": "Feature", "properties": { "fid": 6085, "SCALERANK": 6, "NAME": "Moncton", "ADM1NAME": "New Brunswick", "city_id": "s0000654", "city": "Moncton", "station_code": "CYQM", "lat": 46.09, "lon": -64.79 }, "geometry": { "type": "Point", "coordinates": [ -64.7666775, 46.0833486 ] } },
{ "type": "Feature", "properties": { "fid": 6086, "SCALERANK": 6, "NAME": "Fredericton", "ADM1NAME": "New Brunswick", "city_id": "s0000250", "city": "Fredericton", "station_code": "CYFC", "lat": 45.96, "lon": -66.65 }, "geometry": { "type": "Point", "coordinates": [ -66.6333077, 45.9499976 ] } },
{ "type": "Feature", "properties": { "fid": 6087, "SCALERANK": 6, "NAME": "Bathurst", "ADM1NAME": "New Brunswick", "city_id": "s0000806", "city": "Bathurst", "station_code": "CZBF", "lat": 47.61, "lon": -65.65 }, "geometry": { "type": "Point", "coordinates": [ -65.6499827, 47.5999744 ] } },
{ "type": "Feature", "properties": { "fid": 6088, "SCALERANK": 6, "NAME": "Yarmouth", "ADM1NAME": "Nova Scotia", "city_id": "s0000649", "city": "Yarmouth", "station_code": "CYQI", "lat": 43.84, "lon": -66.12 }, "geometry": { "type": "Point", "coordinates": [ -66.1125812, 43.8307945 ] } },
{ "type": "Feature", "properties": { "fid": 6089, "SCALERANK": 6, "NAME": "Gander", "ADM1NAME": "Newfoundland and Labrador", "city_id": "s0000667", "city": "Gander", "station_code": "CYQX", "lat": 48.96, "lon": -54.61 }, "geometry": { "type": "Point", "coordinates": [ -54.5499884, 48.9499953 ] } },
{ "type": "Feature", "properties": { "fid": 6090, "SCALERANK": 6, "NAME": "Cartwright", "ADM1NAME": "Newfoundland and Labrador", "city_id": "s0000100", "city": "Cartwright", "station_code": "CYCA", "lat": 53.7, "lon": -56.99 }, "geometry": { "type": "Point", "coordinates": [ -57.0121411, 53.7014066 ] } },
{ "type": "Feature", "properties": { "fid": 6663, "SCALERANK": 4, "NAME": "Thompson", "ADM1NAME": "Manitoba", "city_id": "s0000695", "city": "Thompson", "station_code": "CYTH", "lat": 55.74, "lon": -97.86 }, "geometry": { "type": "Point", "coordinates": [ -97.8666209, 55.749942 ] } },
{ "type": "Feature", "properties": { "fid": 6664, "SCALERANK": 4, "NAME": "Brandon", "ADM1NAME": "Manitoba", "city_id": "s0000492", "city": "Brandon", "station_code": "CYBR", "lat": 49.85, "lon": -99.95 }, "geometry": { "type": "Point", "coordinates": [ -99.9499821, 49.8332748 ] } },
{ "type": "Feature", "properties": { "fid": 6665, "SCALERANK": 4, "NAME": "Fort Smith", "ADM1NAME": "Alberta", "city_id": "s0000690", "city": "Fort Smith", "station_code": "CYSM", "lat": 60.01, "lon": -111.88 }, "geometry": { "type": "Point", "coordinates": [ -111.8833364, 60.0000185 ] } },
{ "type": "Feature", "properties": { "fid": 6666, "SCALERANK": 4, "NAME": "Fort McMurray", "ADM1NAME": "Alberta", "city_id": "s0000595", "city": "Fort McMurray", "station_code": "CYMM", "lat": 56.7, "lon": -111.36 }, "geometry": { "type": "Point", "coordinates": [ -111.3833153, 56.7333187 ] } },
{ "type": "Feature", "properties": { "fid": 6667, "SCALERANK": 4, "NAME": "Peace River", "ADM1NAME": "Alberta", "city_id": "s0000625", "city": "Peace River", "station_code": "CYPE", "lat": 56.15, "lon": -117.72 }, "geometry": { "type": "Point", "coordinates": [ -117.2832911, 56.2333234 ] } },
{ "type": "Feature", "properties": { "fid": 6668, "SCALERANK": 4, "NAME": "Fort St. John", "ADM1NAME": "British Columbia", "city_id": "s0000746", "city": "Fort St. John", "station_code": "CYXJ", "lat": 56.25, "lon": -120.84 }, "geometry": { "type": "Point", "coordinates": [ -120.8332811, 56.249989 ] } },
{ "type": "Feature", "properties": { "fid": 6669, "SCALERANK": 4, "NAME": "Iqaluit", "ADM1NAME": "Nunavut", "city_id": "s0000394", "city": "Iqaluit", "station_code": "CYFB", "lat": 63.75, "lon": -68.52 }, "geometry": { "type": "Point", "coordinates": [ -68.5001917, 63.7504594 ] } },
{ "type": "Feature", "properties": { "fid": 6670, "SCALERANK": 4, "NAME": "Cambridge Bay", "ADM1NAME": "Nunavut", "city_id": "s0000495", "city": "Cambridge Bay", "station_code": "CYCB", "lat": 69.12, "lon": -105.05 }, "geometry": { "type": "Point", "coordinates": [ -105.0333153, 69.1169556 ] } },
{ "type": "Feature", "properties": { "fid": 6671, "SCALERANK": 4, "NAME": "Kugluktuk", "ADM1NAME": "Nunavut", "city_id": "s0000498", "city": "Kugluktuk", "station_code": "CYCO", "lat": 67.83, "lon": -115.1 }, "geometry": { "type": "Point", "coordinates": [ -115.1253504, 67.7986628 ] } },
{ "type": "Feature", "properties": { "fid": 6673, "SCALERANK": 4, "NAME": "Arviat", "ADM1NAME": "Nunavut", "city_id": "s0000511", "city": "Arviat", "station_code": "CYEK", "lat": 61.11, "lon": -94.06 }, "geometry": { "type": "Point", "coordinates": [ -94.0586067, 61.1085921 ] } },
{ "type": "Feature", "properties": { "fid": 6674, "SCALERANK": 4, "NAME": "Taloyoak", "ADM1NAME": "Nunavut", "city_id": "s0000774", "city": "Taloyoak", "station_code": "CYYH", "lat": 69.54, "lon": -93.53 }, "geometry": { "type": "Point", "coordinates": [ -93.5333195, 69.5333126 ] } },
{ "type": "Feature", "properties": { "fid": 6675, "SCALERANK": 4, "NAME": "Igloolik", "ADM1NAME": "Nunavut", "city_id": "s0000540", "city": "Igloolik", "station_code": "CYGT", "lat": 69.38, "lon": -81.8 }, "geometry": { "type": "Point", "coordinates": [ -81.7935921, 69.2565351 ] } },
{ "type": "Feature", "properties": { "fid": 6677, "SCALERANK": 4, "NAME": "Timmins", "ADM1NAME": "Ontario", "city_id": "s0000705", "city": "Timmins", "station_code": "CYTS", "lat": 48.48, "lon": -81.21 }, "geometry": { "type": "Point", "coordinates": [ -81.3333149, 48.4665882 ] } },
{ "type": "Feature", "properties": { "fid": 6678, "SCALERANK": 4, "NAME": "North Bay", "ADM1NAME": "Ontario", "city_id": "s0000765", "city": "North Bay", "station_code": "CYYB", "lat": 46.32, "lon": -79.47 }, "geometry": { "type": "Point", "coordinates": [ -79.4499931, 46.3000021 ] } },
{ "type": "Feature", "properties": { "fid": 6679, "SCALERANK": 4, "NAME": "Kuujjuarapik", "ADM1NAME": "Québec", "city_id": "s0000542", "city": "Kuujjuarapik", "station_code": "CYGW", "lat": 55.3, "lon": -77.74 }, "geometry": { "type": "Point", "coordinates": [ -77.7658324, 55.2814952 ] } },
{ "type": "Feature", "properties": { "fid": 6680, "SCALERANK": 4, "NAME": "Kuujjuaq", "ADM1NAME": "Québec", "city_id": "s0000719", "city": "Kuujjuaq", "station_code": "CYVP", "lat": 58.11, "lon": -68.4 }, "geometry": { "type": "Point", "coordinates": [ -68.3999958, 58.1000053 ] } },
{ "type": "Feature", "properties": { "fid": 6681, "SCALERANK": 4, "NAME": "Sydney", "ADM1NAME": "Nova Scotia", "city_id": "s0000670", "city": "Sydney", "station_code": "CYQY", "lat": 46.13, "lon": -60.18 }, "geometry": { "type": "Point", "coordinates": [ -60.1799807, 46.0661145 ] } },
{ "type": "Feature", "properties": { "fid": 6682, "SCALERANK": 4, "NAME": "Labrador City", "ADM1NAME": "Newfoundland and Labrador", "city_id": "s0000737", "city": "Labrador City", "station_code": "CYWK", "lat": 52.94, "lon": -66.91 }, "geometry": { "type": "Point", "coordinates": [ -66.9158745, 52.9414313 ] } },
{ "type": "Feature", "properties": { "fid": 7018, "SCALERANK": 3, "NAME": "Winnipeg", "ADM1NAME": "Manitoba", "city_id": "s0000193", "city": "Winnipeg", "station_code": "CYWG", "lat": 49.89, "lon": -97.13 }, "geometry": { "type": "Point", "coordinates": [ -97.1659919, 49.8829875 ] } },
{ "type": "Feature", "properties": { "fid": 7019, "SCALERANK": 3, "NAME": "Churchill", "ADM1NAME": "Manitoba", "city_id": "s0000779", "city": "Churchill", "station_code": "CYYQ", "lat": 58.76, "lon": -94.13 }, "geometry": { "type": "Point", "coordinates": [ -94.1659941, 58.7659853 ] } },
{ "type": "Feature", "properties": { "fid": 7020, "SCALERANK": 3, "NAME": "Regina", "ADM1NAME": "Saskatchewan", "city_id": "s0000788", "city": "Regina", "station_code": "CYQR", "lat": 50.45, "lon": -104.62 }, "geometry": { "type": "Point", "coordinates": [ -104.6170099, 50.450033 ] } },
{ "type": "Feature", "properties": { "fid": 7021, "SCALERANK": 3, "NAME": "Saskatoon", "ADM1NAME": "Saskatchewan", "city_id": "s0000797", "city": "Saskatoon", "station_code": "CYXE", "lat": 52.13, "lon": -106.66 }, "geometry": { "type": "Point", "coordinates": [ -106.6699854, 52.1700314 ] } },
{ "type": "Feature", "properties": { "fid": 7022, "SCALERANK": 3, "NAME": "Calgary", "ADM1NAME": "Alberta", "city_id": "s0000047", "city": "Calgary", "station_code": "CYYC", "lat": 51.05, "lon": -114.06 }, "geometry": { "type": "Point", "coordinates": [ -114.0819441, 51.0849376 ] } },
{ "type": "Feature", "properties": { "fid": 7023, "SCALERANK": 3, "NAME": "Prince Rupert", "ADM1NAME": "British Columbia", "city_id": "s0000633", "city": "Prince Rupert", "station_code": "CYPR", "lat": 54.32, "lon": -130.32 }, "geometry": { "type": "Point", "coordinates": [ -130.3299882, 54.3166703 ] } },
{ "type": "Feature", "properties": { "fid": 7024, "SCALERANK": 3, "NAME": "Victoria", "ADM1NAME": "British Columbia", "city_id": "s0000775", "city": "Victoria", "station_code": "CYYJ", "lat": 48.43, "lon": -123.36 }, "geometry": { "type": "Point", "coordinates": [ -123.3500009, 48.4332827 ] } },
{ "type": "Feature", "properties": { "fid": 7025, "SCALERANK": 3, "NAME": "Arctic Bay", "ADM1NAME": "Nunavut", "city_id": "s0000412", "city": "Arctic Bay", "station_code": "CYAB", "lat": 73.04, "lon": -85.15 }, "geometry": { "type": "Point", "coordinates": [ -85.1666209, 73.0333057 ] } },
{ "type": "Feature", "properties": { "fid": 7026, "SCALERANK": 3, "NAME": "Resolute", "ADM1NAME": "Nunavut", "city_id": "s0000672", "city": "Resolute", "station_code": "CYRB", "lat": 74.7, "lon": -94.83 }, "geometry": { "type": "Point", "coordinates": [ -94.9000061, 74.6833342 ] } },
{ "type": "Feature", "properties": { "fid": 7027, "SCALERANK": 3, "NAME": "Naujaat", "ADM1NAME": "Nunavut", "city_id": "s0000713", "city": "Naujaat", "station_code": "CYUT", "lat": 66.52, "lon": -86.24 }, "geometry": { "type": "Point", "coordinates": [ -86.282935, 66.5294669 ] } },
{ "type": "Feature", "properties": { "fid": 7028, "SCALERANK": 3, "NAME": "Yellowknife", "ADM1NAME": "Northwest Territories", "city_id": "s0000366", "city": "Yellowknife", "station_code": "CYZF", "lat": 62.45, "lon": -114.37 }, "geometry": { "type": "Point", "coordinates": [ -114.3969814, 62.4420142 ] } },
{ "type": "Feature", "properties": { "fid": 7029, "SCALERANK": 3, "NAME": "Fort Good Hope", "ADM1NAME": "Northwest Territories", "city_id": "s0000818", "city": "Fort Good Hope", "station_code": "CYGH", "lat": 66.26, "lon": -128.64 }, "geometry": { "type": "Point", "coordinates": [ -128.6333218, 66.2666128 ] } },
{ "type": "Feature", "properties": { "fid": 7030, "SCALERANK": 3, "NAME": "Whitehorse", "ADM1NAME": "Yukon", "city_id": "s0000825", "city": "Whitehorse", "station_code": "CYXY", "lat": 60.72, "lon": -135.06 }, "geometry": { "type": "Point", "coordinates": [ -135.0499844, 60.716719 ] } },
{ "type": "Feature", "properties": { "fid": 7034, "SCALERANK": 3, "NAME": "Fort Severn", "ADM1NAME": "Ontario", "city_id": "s0000517", "city": "Fort Severn", "station_code": "CYER", "lat": 55.99, "lon": -87.63 }, "geometry": { "type": "Point", "coordinates": [ -87.6499836, 55.9833386 ] } },
{ "type": "Feature", "properties": { "fid": 7035, "SCALERANK": 3, "NAME": "Thunder Bay", "ADM1NAME": "Ontario", "city_id": "s0000411", "city": "Thunder Bay", "station_code": "CYQT", "lat": 48.41, "lon": -89.24 }, "geometry": { "type": "Point", "coordinates": [ -89.2749748, 48.4461501 ] } },
{ "type": "Feature", "properties": { "fid": 7036, "SCALERANK": 3, "NAME": "Québec", "ADM1NAME": "Québec", "city_id": "s0000620", "city": "Québec", "station_code": "CYQB", "lat": 46.81, "lon": -71.21 }, "geometry": { "type": "Point", "coordinates": [ -71.2456102, 46.8399691 ] } },
{ "type": "Feature", "properties": { "fid": 7037, "SCALERANK": 3, "NAME": "Halifax", "ADM1NAME": "Nova Scotia", "city_id": "s0000318", "city": "Halifax", "station_code": "CYHZ", "lat": 44.65, "lon": -63.6 }, "geometry": { "type": "Point", "coordinates": [ -63.6000045, 44.6500252 ] } },
{ "type": "Feature", "properties": { "fid": 7038, "SCALERANK": 3, "NAME": "St. John's", "ADM1NAME": "Newfoundland and Labrador", "city_id": "s0000280", "city": "St. John's", "station_code": "CYYT", "lat": 47.56, "lon": -52.72 }, "geometry": { "type": "Point", "coordinates": [ -52.6810069, 47.5849882 ] } },
{ "type": "Feature", "properties": { "fid": 7039, "SCALERANK": 3, "NAME": "Nain", "ADM1NAME": "Newfoundland and Labrador", "city_id": "s0000162", "city": "Nain", "station_code": "CYDP", "lat": 56.54, "lon": -61.7 }, "geometry": { "type": "Point", "coordinates": [ -61.6860454, 56.5473515 ] } },
{ "type": "Feature", "properties": { "fid": 7040, "SCALERANK": 3, "NAME": "Charlottetown", "ADM1NAME": "Prince Edward Island", "city_id": "s0000583", "city": "Charlottetown", "station_code": "CYYG", "lat": 46.24, "lon": -63.13 }, "geometry": { "type": "Point", "coordinates": [ -63.1313251, 46.2492816 ] } },
{ "type": "Feature", "properties": { "fid": 7209, "SCALERANK": 2, "NAME": "Edmonton", "ADM1NAME": "Alberta", "city_id": "s0000045", "city": "Edmonton", "station_code": "CXEC", "lat": 53.54, "lon": -113.49 }, "geometry": { "type": "Point", "coordinates": [ -113.5019278, 53.5519705 ] } },
{ "type": "Feature", "properties": { "fid": 7210, "SCALERANK": 2, "NAME": "Montréal", "ADM1NAME": "Québec", "city_id": "s0000635", "city": "Montréal", "station_code": "CYUL", "lat": 45.51, "lon": -73.55 }, "geometry": { "type": "Point", "coordinates": [ -73.5852428, 45.5019451 ] } },
{ "type": "Feature", "properties": { "fid": 7253, "SCALERANK": 1, "NAME": "Vancouver", "ADM1NAME": "British Columbia", "city_id": "s0000141", "city": "Vancouver", "station_code": "CYVR", "lat": 49.24, "lon": -123.12 }, "geometry": { "type": "Point", "coordinates": [ -123.1235901, 49.2753624 ] } },
{ "type": "Feature", "properties": { "fid": 7254, "SCALERANK": 1, "NAME": "Toronto", "ADM1NAME": "Ontario", "city_id": "s0000458", "city": "Toronto", "station_code": "CYYZ", "lat": 43.65, "lon": -79.38 }, "geometry": { "type": "Point", "coordinates": [ -79.38945855491194, 43.664644547434293 ] } }
]
}
